[{"OBJECT_NAME":"STARLINK-32403","OBJECT_ID":"2024-191J","EPOCH":"2026-03-09T06:39:40.408128","MEAN_MOTION":15.27567609,"ECCENTRICITY":0.00011194,"INCLINATION":43.0031,"RA_OF_ASC_NODE":156.8087,"ARG_OF_PERICENTER":233.473,"MEAN_ANOMALY":126.6018,"EPHEMERIS_TYPE":0,"CLASSIFICATION_TYPE":"U","NORAD_CAT_ID":61629,"ELEMENT_SET_NO":999,"REV_AT_EPOCH":7747,"BSTAR":1.3364739e-5,"MEAN_MOTION_DOT":1.06e-6,"MEAN_MOTION_DDOT":0},{"OBJECT_NAME":"TITAN 3C TRANSTAGE DEB","OBJECT_ID":"1965-082PT","EPOCH":"2026-03-09T13:23:41.116128","MEAN_MOTION":15.28908269,"ECCENTRICITY":0.00104371,"INCLINATION":32.0266,"RA_OF_ASC_NODE":255.1391,"ARG_OF_PERICENTER":172.8339,"MEAN_ANOMALY":187.2474,"EPHEMERIS_TYPE":0,"CLASSIFICATION_TYPE":"U","NORAD_CAT_ID":3462,"ELEMENT_SET_NO":999,"REV_AT_EPOCH":24824,"BSTAR":0.0004444037,"MEAN_MOTION_DOT":0.00012939,"MEAN_MOTION_DDOT":0}]
